KUIPER-00079            
1 64826U 25151L   25306.50451228 -.00001441  00000+0 -15943-3 0  9999
2 64826  51.8981 142.6848 0012205 170.6937 189.4254 14.79919407 17671
KUIPER-00080            
1 64827U 25151M   25307.78312189  .00003382  00000+0  47244-3 0  9996
2 64827  51.8977 137.3317 0005468 194.7237 165.3567 14.79932806 16668
KUIPER-00082            
1 64828U 25151N   25307.76285248 -.00004503  00000+0 -56241-3 0  9995
2 64828  51.8989 124.9282 0004522 207.8117 152.2604 14.79894557 16834
KUIPER-00083            
1 64829U 25151P   25307.55213192  .00003346  00000+0  46768-3 0  9997
2 64829  51.8988 133.3603 0010635 182.8155 177.2749 14.79921097 17884
KUIPER-00084            
1 64830U 25151Q   25307.81150286  .00003479  00000+0  48516-3 0  9992
2 64830  51.8979 142.2006 0012123 154.9726 205.1827 14.79916489 16594
KUIPER-00085            
1 64831U 25151R   25307.79653484 -.00004838  00000+0 -60563-3 0  9996
2 64831  51.8984 124.7876 0007748 184.7388 175.3502 14.79921040 16837
KUIPER-00086            
1 64832U 25151S   25306.23272534  .00016652  00000+0  22040-2 0  9990
2 64832  51.8999 141.6954 0011195 171.9677 188.1467 14.79971466 16467
KUIPER-00087            
1 64833U 25151T   25307.83336806  .00014517  00000+0  11831-2 0  9995
2 64833  51.8905 118.1242 0003629 199.8942 151.7983 14.99674017  3842
